NORAD_CAT_ID,OBJECT_NAME,OBJECT_TYPE,EPOCH,MEAN_MOTION,ECCENTRICITY,INCLINATION,RA_OF_ASC_NODE,ARG_OF_PERICENTER,MEAN_ANOMALY,BSTAR,MEAN_MOTION_DOT,MEAN_MOTION_DDOT,TLE_LINE0,TLE_LINE1,TLE_LINE2,SEMIMAJOR_AXIS,PERIOD,APOGEE,PERIGEE,DECAYED
55316.0,STARLINK-5257,PAYLOAD,2023-10-15 18:55:26,14.98335656,0.0003071,70.0017,52.8113,273.7494,86.3314,-0.00017141,-2.138e-05,0.0,0 STARLINK-5257,1 55316U 23010AZ  23288.78849539 -.00002138  00000-0 -17141-3 0  9995,2 55316  70.0017  52.8113 0003071 273.7494  86.3314 14.98335656 43444,6950.175,96.107,574.175,569.906,0.0
55316.0,STARLINK-5257,PAYLOAD,2023-10-16 12:32:54,14.98335548,0.0003148,70.0013,50.9591,271.3195,88.7604,-0.00010653,-1.364e-05,0.0,0 STARLINK-5257,1 55316U 23010AZ  23289.52285009 -.00001364  00000-0 -10653-3 0  9995,2 55316  70.0013  50.9591 0003148 271.3195  88.7604 14.98335548 42375,6950.176,96.107,574.229,569.853,0.0
55316.0,STARLINK-5257,PAYLOAD,2023-10-16 18:57:25,14.98340257,0.0003011,70.0017,50.2859,270.3665,89.7149,-3.7658e-05,-5.42e-06,0.0,0 STARLINK-5257,1 55316U 23010AZ  23289.78988401 -.00000542  00000-0 -37658-4 0  9991,2 55316  70.0017  50.2859 0003011 270.3665  89.7149 14.98340257 43592,6950.161,96.106,574.119,569.933,0.0
55316.0,STARLINK-5257,PAYLOAD,2023-10-17 12:34:55,14.98326855,0.0002874,70.0019,48.4351,266.8965,93.1865,7.3867e-05,7.88e-06,0.0,0 STARLINK-5257,1 55316U 23010AZ  23290.52424805  .00000788  00000-0  73867-4 0  9990,2 55316  70.0019  48.4351 0002874 266.8965  93.1865 14.98326855 42523,6950.203,96.107,574.065,570.07,0.0
55316.0,STARLINK-5257,PAYLOAD,2023-10-17 14:11:02,14.98328343,0.0002871,70.0019,48.2668,266.1496,93.9335,8.8501e-05,9.63e-06,0.0,0 STARLINK-5257,1 55316U 23010AZ  23290.59100671  .00000963  00000-0  88501-4 0  9995,2 55316  70.0019  48.2668 0002871 266.1496  93.9335 14.98328343 43717,6950.198,96.107,574.058,570.068,0.0
55316.0,STARLINK-5257,PAYLOAD,2023-10-17 17:23:19,14.98327362,0.0002895,70.0019,47.9302,265.6217,94.4611,7.2878e-05,7.77e-06,0.0,0 STARLINK-5257,1 55316U 23010AZ  23290.72452782  .00000777  00000-0  72878-4 0  9996,2 55316  70.0019  47.9302 0002895 265.6217  94.4611 14.98327362 43734,6950.201,96.107,574.078,570.054,0.0
55316.0,STARLINK-5257,PAYLOAD,2023-10-18 12:36:56,14.98301392,0.0002986,70.0016,45.9095,262.6118,97.4701,0.00048912,5.744e-05,0.0,0 STARLINK-5257,1 55316U 23010AZ  23291.52565567  .00005744  00000-0  48912-3 0  9991,2 55316  70.0016  45.9095 0002986 262.6118  97.4701 14.98301392 42676,6950.281,96.109,574.222,570.071,0.0
55316.0,STARLINK-5257,PAYLOAD,2023-10-18 14:13:04,14.98331692,0.0003062,70.0019,45.7437,270.6054,89.4754,-4.1539e-05,-5.89e-06,0.0,0 STARLINK-5257,1 55316U 23010AZ  23291.59240855 -.00000589  00000-0 -41539-4 0  9991,2 55316  70.0019  45.7437 0003062 270.6054  89.4754 14.98331692 42687,6950.188,96.107,574.181,569.925,0.0
55316.0,STARLINK-5257,PAYLOAD,2023-10-19 11:02:48,14.98336432,0.0002817,70.0018,43.5538,264.6821,95.4016,6.4443e-05,6.76e-06,0.0,0 STARLINK-5257,1 55316U 23010AZ  23292.46027987  .00000676  00000-0  64443-4 0  9991,2 55316  70.0018  43.5538 0002817 264.6821  95.4016 14.98336432 42816,6950.173,96.107,573.996,570.08,0.0
55316.0,STARLINK-5257,PAYLOAD,2023-10-20 11:04:50,14.98321002,0.000284,70.0022,41.0291,271.2911,88.7922,-0.0001449,-1.821e-05,0.0,0 STARLINK-5257,1 55316U 23010AZ  23293.46169155 -.00001821  00000-0 -14490-3 0  9997,2 55316  70.0022  41.0291 0002840 271.2911  88.7922 14.98321002 42964,6950.221,96.108,574.06,570.112,0.0
55316.0,STARLINK-5257,PAYLOAD,2023-10-21 11:06:50,14.98334175,0.0002643,70.0021,38.5038,264.8584,95.2273,-5.5609e-05,-7.56e-06,0.0,0 STARLINK-5257,1 55316U 23010AZ  23294.46308130 -.00000756  00000-0 -55609-4 0  9990,2 55316  70.0021  38.5038 0002643 264.8584  95.2273 14.98334175 43113,6950.18,96.107,573.882,570.208,0.0
55316.0,STARLINK-5257,PAYLOAD,2023-10-21 17:31:22,14.98334665,0.0002264,70.0025,37.8302,253.4566,106.6345,-2.3692e-05,-3.76e-06,0.0,0 STARLINK-5257,1 55316U 23010AZ  23294.73011915 -.00000376  00000-0 -23692-4 0  9997,2 55316  70.0025  37.8302 0002264 253.4566 106.6345 14.98334665 44332,6950.178,96.107,573.617,570.47,0.0
55316.0,STARLINK-5257,PAYLOAD,2023-10-22 12:45:00,14.98312677,0.000202,70.003,35.8128,264.8785,95.2144,4.8239e-05,4.83e-06,0.0,0 STARLINK-5257,1 55316U 23010AZ  23295.53125367  .00000483  00000-0  48239-4 0  9994,2 55316  70.0030  35.8128 0002020 264.8785  95.2144 14.98312677 43272,6950.246,96.108,573.515,570.708,0.0
55316.0,STARLINK-5257,PAYLOAD,2023-10-22 14:21:08,14.98322176,0.0002169,70.002,35.6422,253.942,106.15,-0.00011276,-1.438e-05,0.0,0 STARLINK-5257,1 55316U 23010AZ  23295.59801200 -.00001438  00000-0 -11276-3 0  9990,2 55316  70.0020  35.6422 0002169 253.9420 106.1500 14.98322176 44460,6950.217,96.108,573.59,570.575,0.0
55316.0,STARLINK-5257,PAYLOAD,2023-10-22 17:33:24,14.98313593,0.0002575,70.0032,35.3077,269.0178,91.0686,2.6194e-05,2.2e-06,0.0,0 STARLINK-5257,1 55316U 23010AZ  23295.73153538  .00000220  00000-0  26194-4 0  9992,2 55316  70.0032  35.3077 0002575 269.0178  91.0686 14.98313593 44487,6950.244,96.108,573.898,570.319,0.0
55316.0,STARLINK-5257,PAYLOAD,2023-10-22 23:57:56,14.98324223,0.0002632,70.003,34.6349,270.037,90.0488,-2.8371e-05,-4.31e-06,0.0,0 STARLINK-5257,1 55316U 23010AZ  23295.99857126 -.00000431  00000-0 -28371-4 0  9999,2 55316  70.0030  34.6349 0002632 270.0370  90.0488 14.98324223 43344,6950.211,96.107,573.905,570.246,0.0
55316.0,STARLINK-5257,PAYLOAD,2023-10-23 11:10:52,14.98333025,0.0002976,70.0019,33.455,272.2381,87.8438,-2.1882e-05,-3.54e-06,0.0,0 STARLINK-5257,1 55316U 23010AZ  23296.46588542 -.00000354  00000-0 -21882-4 0  9999,2 55316  70.0019  33.4550 0002976 272.2381  87.8438 14.98333025 43416,6950.184,96.107,574.117,569.98,0.0
55316.0,STARLINK-5257,PAYLOAD,2023-10-24 00:00:03,14.98238401,0.0002524,70.0035,32.107,258.6455,101.4421,-0.0010954,-0.00013107,0.0,0 STARLINK-5257,1 55316U 23010AZ  23297.00004601 -.00013107  00000-0 -10954-2 0  9995,2 55316  70.0035  32.1070 0002524 258.6455 101.4421 14.98238401 43491,6950.476,96.113,574.095,570.587,0.0
55316.0,STARLINK-5257,PAYLOAD,2023-10-24 12:49:01,14.98323726,0.0002778,70.0016,30.76,267.6655,92.4186,9.3844e-05,1.027e-05,0.0,0 STARLINK-5257,1 55316U 23010AZ  23297.53404806  .00001027  00000-0  93844-4 0  9991,2 55316  70.0016  30.7600 0002778 267.6655  92.4186 14.98323726 43577,6950.212,96.107,574.008,570.147,0.0
55316.0,STARLINK-5257,PAYLOAD,2023-10-24 14:25:10,14.98320453,0.0002553,70.0031,30.5935,261.6282,98.4588,8.5294e-05,9.25e-06,0.0,0 STARLINK-5257,1 55316U 23010AZ  23297.60081051  .00000925  00000-0  85294-4 0  9998,2 55316  70.0031  30.5935 0002553 261.6282  98.4588 14.98320453 44762,6950.222,96.108,573.862,570.313,0.0
55316.0,STARLINK-5257,PAYLOAD,2023-10-25 14:27:10,14.98335683,0.0002939,70.0019,28.0688,267.1139,92.9684,4.5741e-05,4.53e-06,0.0,0 STARLINK-5257,1 55316U 23010AZ  23298.60220197  .00000453  00000-0  45741-4 0  9994,2 55316  70.0019  28.0688 0002939 267.1139  92.9684 14.98335683 43738,6950.175,96.107,574.083,569.998,0.0
55316.0,STARLINK-5257,PAYLOAD,2023-10-26 04:52:23,14.98335295,0.000246,70.0021,26.5537,273.8139,86.2739,-0.0001104,-1.41e-05,0.0,0 STARLINK-5257,1 55316U 23010AZ  23299.20304686 -.00001410  00000-0 -11040-3 0  9997,2 55316  70.0021  26.5537 0002460 273.8139  86.2739 14.98335295 43826,6950.177,96.107,573.751,570.332,0.0
55316.0,STARLINK-5257,PAYLOAD,2023-10-26 12:53:03,14.98349784,0.0002096,70.0023,25.7125,258.4899,101.6025,-0.00032636,-3.987e-05,0.0,0 STARLINK-5257,1 55316U 23010AZ  23299.53684170 -.00003987  00000-0 -32636-3 0  9997,2 55316  70.0023  25.7125 0002096 258.4899 101.6025 14.98349784 43872,6950.132,96.106,573.453,570.54,0.0
55316.0,STARLINK-5257,PAYLOAD,2023-10-26 16:05:18,14.98363151,0.0002103,70.0028,25.3763,257.9278,102.1646,-0.00052909,-6.405e-05,0.0,0 STARLINK-5257,1 55316U 23010AZ  23299.67035664 -.00006405  00000-0 -52909-3 0  9993,2 55316  70.0028  25.3763 0002103 257.9278 102.1646 14.98363151 45078,6950.09,96.105,573.417,570.494,0.0
55316.0,STARLINK-5257,PAYLOAD,2023-10-27 11:18:55,14.98347325,0.0002855,70.0022,23.3564,270.1919,89.8912,-0.00011477,-1.463e-05,0.0,0 STARLINK-5257,1 55316U 23010AZ  23300.47147333 -.00001463  00000-0 -11477-3 0  9995,2 55316  70.0022  23.3564 0002855 270.1919  89.8912 14.98347325 45197,6950.139,96.106,573.989,570.02,0.0
55316.0,STARLINK-5257,PAYLOAD,2023-10-27 22:31:51,14.98341157,0.0003009,70.0021,22.1781,257.1172,102.9652,8.6924e-06,1.1e-07,0.0,0 STARLINK-5257,1 55316U 23010AZ  23300.93879096  .00000011  00000-0  86924-5 0  9991,2 55316  70.0021  22.1781 0003009 257.1172 102.9652 14.98341157 44084,6950.158,96.106,574.115,569.932,0.0
55316.0,STARLINK-5257,PAYLOAD,2023-10-28 12:57:05,14.98318686,0.000311,70.0013,20.6638,269.1911,90.8891,-0.00012104,-1.536e-05,0.0,0 STARLINK-5257,1 55316U 23010AZ  23301.53965094 -.00001536  00000-0 -12104-3 0  9994,2 55316  70.0013  20.6638 0003110 269.1911  90.8891 14.98318686 44177,6950.228,96.108,574.254,569.931,0.0
55316.0,STARLINK-5257,PAYLOAD,2023-10-28 16:09:21,14.9832022,0.0002907,70.0015,20.3268,264.8286,95.2541,-0.00010144,-1.303e-05,0.0,0 STARLINK-5257,1 55316U 23010AZ  23301.67316997 -.00001303  00000-0 -10144-3 0  9995,2 55316  70.0015  20.3268 0002907 264.8286  95.2541 14.98320220 45376,6950.223,96.108,574.109,570.068,0.0
55316.0,STARLINK-5257,PAYLOAD,2023-10-29 04:58:25,14.98332439,0.0003303,70.0002,18.9787,269.3964,90.6817,-7.0856e-06,-1.78e-06,0.0,0 STARLINK-5257,1 55316U 23010AZ  23302.20723850 -.00000178  00000-0 -70856-5 0  9992,2 55316  70.0002  18.9787 0003303 269.3964  90.6817 14.98332439 44273,6950.185,96.107,574.346,569.755,0.0
55316.0,STARLINK-5257,PAYLOAD,2023-10-29 12:59:04,14.98344971,0.0002859,70.0015,18.1368,258.5509,101.5329,8.6663e-05,9.42e-06,0.0,0 STARLINK-5257,1 55316U 23010AZ  23302.54102596  .00000942  00000-0  86663-4 0  9996,2 55316  70.0015  18.1368 0002859 258.5509 101.5329 14.98344971 44324,6950.147,96.106,573.999,570.025,0.0
